{
  "norad_id": 57906,
  "name": "STARLINK-30428",
  "history": [
    {
      "epoch": "2026-03-28T15:23:28.411584Z",
      "apogee_km": 486.0899750145145,
      "perigee_km": 484.95335313974374,
      "latitude_deg": -4.001503799284078e-05,
      "longitude_deg": 150.32114473246384,
      "height_km": 485.4182810246374,
      "semi_major_axis_km": 6863.658664077129,
      "eccentricity": 8.28e-05,
      "inclination_deg": 43.0,
      "raan_deg": 207.2484,
      "arg_perigee_deg": 257.7731,
      "mean_anomaly_deg": 102.3027,
      "mean_motion_rev_day": 15.2675463
    },
    {
      "epoch": "2026-03-29T00:48:43.795008Z",
      "apogee_km": 485.7820689830496,
      "perigee_km": 485.31533835519895,
      "latitude_deg": 6.9574929917869e-06,
      "longitude_deg": 6.412592853339389,
      "height_km": 485.36581099552404,
      "semi_major_axis_km": 6863.6857036691235,
      "eccentricity": 3.4e-05,
      "inclination_deg": 42.9961,
      "raan_deg": 205.0408,
      "arg_perigee_deg": 259.7005,
      "mean_anomaly_deg": 100.3808,
      "mean_motion_rev_day": 15.26745608
    },
    {
      "epoch": "2026-03-30T00:21:50.346720Z",
      "apogee_km": 487.34912202337,
      "perigee_km": 483.7923486749123,
      "latitude_deg": 8.462406460858977e-06,
      "longitude_deg": 6.632257289845462,
      "height_km": 485.44453344301843,
      "semi_major_axis_km": 6863.70773534914,
      "eccentricity": 0.0002591,
      "inclination_deg": 43.0033,
      "raan_deg": 199.505,
      "arg_perigee_deg": 266.9129,
      "mean_anomaly_deg": 93.1426,
      "mean_motion_rev_day": 15.26738257
    },
    {
      "epoch": "2026-03-30T00:21:50.347584Z",
      "apogee_km": 487.34919066044677,
      "perigee_km": 483.79228003783464,
      "latitude_deg": 9.247450069011949e-06,
      "longitude_deg": 6.632254517097635,
      "height_km": 485.4445371389509,
      "semi_major_axis_km": 6863.70773534914,
      "eccentricity": 0.00025911,
      "inclination_deg": 43.0033,
      "raan_deg": 199.505,
      "arg_perigee_deg": 266.9129,
      "mean_anomaly_deg": 93.1426,
      "mean_motion_rev_day": 15.26738257
    },
    {
      "epoch": "2026-03-30T14:29:43.788192Z",
      "apogee_km": 487.336959211616,
      "perigee_km": 483.9344498065366,
      "latitude_deg": -3.065584650847086e-05,
      "longitude_deg": 150.75678289538735,
      "height_km": 485.1185307619801,
      "semi_major_axis_km": 6863.772704509076,
      "eccentricity": 0.00024786,
      "inclination_deg": 42.9977,
      "raan_deg": 196.1826,
      "arg_perigee_deg": 279.9698,
      "mean_anomaly_deg": 80.0873,
      "mean_motion_rev_day": 15.2671658
    },
    {
      "epoch": "2026-03-30T16:03:56.282688Z",
      "apogee_km": 486.28834256301616,
      "perigee_km": 484.9725583427644,
      "latitude_deg": -3.6970321102068884e-06,
      "longitude_deg": 126.77256807336046,
      "height_km": 485.54941114963566,
      "semi_major_axis_km": 6863.76745045289,
      "eccentricity": 9.585e-05,
      "inclination_deg": 42.9979,
      "raan_deg": 195.8149,
      "arg_perigee_deg": 257.4614,
      "mean_anomaly_deg": 102.613,
      "mean_motion_rev_day": 15.26718333
    },
    {
      "epoch": "2026-03-31T14:02:49.786944Z",
      "apogee_km": 486.48708853331846,
      "perigee_km": 484.5899686172197,
      "latitude_deg": -7.95552880143206e-06,
      "longitude_deg": 150.980481019739,
      "height_km": 485.55481323103953,
      "semi_major_axis_km": 6863.675528575269,
      "eccentricity": 0.0001382,
      "inclination_deg": 43.0012,
      "raan_deg": 190.6485,
      "arg_perigee_deg": 255.3782,
      "mean_anomaly_deg": 104.6916,
      "mean_motion_rev_day": 15.26749003
    },
    {
      "epoch": "2026-04-01T13:35:57.976800Z",
      "apogee_km": 486.79831693566484,
      "perigee_km": 484.38777494353144,
      "latitude_deg": 1.3858196227333438e-05,
      "longitude_deg": 151.19232359902043,
      "height_km": 484.83688885671495,
      "semi_major_axis_km": 6863.730045939598,
      "eccentricity": 0.0001756,
      "inclination_deg": 43.0034,
      "raan_deg": 185.1117,
      "arg_perigee_deg": 296.2744,
      "mean_anomaly_deg": 63.7927,
      "mean_motion_rev_day": 15.26730813
    },
    {
      "epoch": "2026-04-02T13:09:06.088896Z",
      "apogee_km": 485.86548444381606,
      "perigee_km": 485.34905632491245,
      "latitude_deg": 2.9051954973453157e-05,
      "longitude_deg": 151.40478364291153,
      "height_km": 485.2582897100256,
      "semi_major_axis_km": 6863.7442703843635,
      "eccentricity": 3.762e-05,
      "inclination_deg": 43.0024,
      "raan_deg": 179.5752,
      "arg_perigee_deg": 298.9742,
      "mean_anomaly_deg": 61.1072,
      "mean_motion_rev_day": 15.26726067
    },
    {
      "epoch": "2026-04-02T22:34:20.549568Z",
      "apogee_km": 486.2920932844645,
      "perigee_km": 484.82641958586555,
      "latitude_deg": 4.209222632763338e-06,
      "longitude_deg": 7.494010901160574,
      "height_km": 484.834964811742,
      "semi_major_axis_km": 6863.696256435165,
      "eccentricity": 0.00010677,
      "inclination_deg": 43.0033,
      "raan_deg": 177.3616,
      "arg_perigee_deg": 313.1263,
      "mean_anomaly_deg": 46.9499,
      "mean_motion_rev_day": 15.26742087
    },
    {
      "epoch": "2026-04-03T14:16:25.202496Z",
      "apogee_km": 486.42459541940025,
      "perigee_km": 484.71278721998624,
      "latitude_deg": -4.361708547538431e-05,
      "longitude_deg": 127.64134352868426,
      "height_km": 484.9264579412342,
      "semi_major_axis_km": 6863.705691319693,
      "eccentricity": 0.0001247,
      "inclination_deg": 43.0021,
      "raan_deg": 173.6732,
      "arg_perigee_deg": 299.3143,
      "mean_anomaly_deg": 60.7583,
      "mean_motion_rev_day": 15.26738939
    },
    {
      "epoch": "2026-04-04T13:49:31.251360Z",
      "apogee_km": 486.2766976098583,
      "perigee_km": 484.69257373634446,
      "latitude_deg": -3.3298361132172e-05,
      "longitude_deg": 127.86271721344211,
      "height_km": 484.9820552844501,
      "semi_major_axis_km": 6863.621635673101,
      "eccentricity": 0.0001154,
      "inclination_deg": 43.0001,
      "raan_deg": 168.137,
      "arg_perigee_deg": 290.6359,
      "mean_anomaly_deg": 69.4368,
      "mean_motion_rev_day": 15.26766985
    },
    {
      "epoch": "2026-04-05T13:22:40.545408Z",
      "apogee_km": 486.20992579384256,
      "perigee_km": 485.03210491840855,
      "latitude_deg": -9.436616396651967e-08,
      "longitude_deg": 128.07315586307095,
      "height_km": 485.4186901789504,
      "semi_major_axis_km": 6863.758015356126,
      "eccentricity": 8.58e-05,
      "inclination_deg": 42.9984,
      "raan_deg": 162.6034,
      "arg_perigee_deg": 267.904,
      "mean_anomaly_deg": 92.1713,
      "mean_motion_rev_day": 15.26721481
    },
    {
      "epoch": "2026-04-06T05:04:44.697216Z",
      "apogee_km": 486.48169185754887,
      "perigee_km": 484.6203969336693,
      "latitude_deg": 7.443998571601317e-06,
      "longitude_deg": -111.7806600678172,
      "height_km": 485.2220017855148,
      "semi_major_axis_km": 6863.688044395609,
      "eccentricity": 0.00013559,
      "inclination_deg": 42.9997,
      "raan_deg": 158.9117,
      "arg_perigee_deg": 276.5255,
      "mean_anomaly_deg": 83.5442,
      "mean_motion_rev_day": 15.26744827
    },
    {
      "epoch": "2026-04-07T10:54:40.914144Z",
      "apogee_km": 486.4028738787074,
      "perigee_km": 484.4983655859842,
      "latitude_deg": 9.676432112591541e-06,
      "longitude_deg": 152.49873351677158,
      "height_km": 485.1469391648145,
      "semi_major_axis_km": 6863.587619732346,
      "eccentricity": 0.00013874,
      "inclination_deg": 42.9996,
      "raan_deg": 151.9005,
      "arg_perigee_deg": 274.8441,
      "mean_anomaly_deg": 85.2252,
      "mean_motion_rev_day": 15.26778335
    },
    {
      "epoch": "2026-04-07T20:19:55.171776Z",
      "apogee_km": 487.2904827806751,
      "perigee_km": 483.63081251494896,
      "latitude_deg": -1.5371419083491277e-05,
      "longitude_deg": 8.588607444336251,
      "height_km": 485.33616149851184,
      "semi_major_axis_km": 6863.597647647812,
      "eccentricity": 0.0002666,
      "inclination_deg": 42.9983,
      "raan_deg": 149.6867,
      "arg_perigee_deg": 266.93,
      "mean_anomaly_deg": 93.1246,
      "mean_motion_rev_day": 15.26774989
    },
    {
      "epoch": "2026-04-08T10:27:47.868480Z",
      "apogee_km": 486.5392738921546,
      "perigee_km": 484.54743385346137,
      "latitude_deg": -2.633168120329849e-05,
      "longitude_deg": 152.71737230248138,
      "height_km": 485.38581848451986,
      "semi_major_axis_km": 6863.680353872808,
      "eccentricity": 0.0001451,
      "inclination_deg": 42.9997,
      "raan_deg": 146.3654,
      "arg_perigee_deg": 266.2186,
      "mean_anomaly_deg": 93.8499,
      "mean_motion_rev_day": 15.26747393
    },
    {
      "epoch": "2026-04-09T10:00:55.296288Z",
      "apogee_km": 486.44690561394236,
      "perigee_km": 484.656855553887,
      "latitude_deg": 5.128240484561621e-05,
      "longitude_deg": 152.93395405145895,
      "height_km": 485.3939820343797,
      "semi_major_axis_km": 6863.688880583914,
      "eccentricity": 0.0001304,
      "inclination_deg": 42.9988,
      "raan_deg": 140.8301,
      "arg_perigee_deg": 265.8001,
      "mean_anomaly_deg": 94.2702,
      "mean_motion_rev_day": 15.26744548
    },
    {
      "epoch": "2026-04-10T03:17:12.537888Z",
      "apogee_km": 486.43896377027977,
      "perigee_km": 484.64822950261805,
      "latitude_deg": -3.901469352990783e-06,
      "longitude_deg": -110.90546031657372,
      "height_km": 485.3715916279675,
      "semi_major_axis_km": 6863.680596636449,
      "eccentricity": 0.00013045,
      "inclination_deg": 43.0,
      "raan_deg": 136.7719,
      "arg_perigee_deg": 266.7155,
      "mean_anomaly_deg": 93.3547,
      "mean_motion_rev_day": 15.26747312
    }
  ]
}